{
  "type": "FeatureCollection",
  "features": [
    {
      "type": "Feature",
      "properties": {
        "norad_id": 27954,
        "name": "GALAXY 13 (HORIZONS-1)",
        "group": "intelsat",
        "lat": 0.9106001388300742,
        "lon": 177.14963499127182,
        "alt_km": 35783.121670249086,
        "timestamp": "2025-12-06T16:45:42.393980+00:00",
        "meta_object_name": "GALAXY 13 (HORIZONS-1)",
        "meta_object_id": "2003-044A",
        "meta_epoch": "2025-12-06T07:41:21.361632",
        "meta_mean_motion": 1.00273824,
        "meta_eccentricity": 0.00020659,
        "meta_inclination": 0.9189,
        "meta_ra_of_asc_node": 86.554,
        "meta_arg_of_pericenter": 165.8205,
        "meta_mean_anomaly": 148.3442,
        "meta_ephemeris_type": 0,
        "meta_classification_type": "U",
        "meta_norad_cat_id": 27954,
        "meta_element_set_no": 999,
        "meta_rev_at_epoch": 4463,
        "meta_bstar": 0,
        "meta_mean_motion_dot": 1.4e-06,
        "meta_mean_motion_ddot": 0,
        "tle_line1": "1 27954U 03044A   25340.32038613  .00000140  00000+0  00000+0 0  9991",
        "tle_line2": "2 27954   0.9189  86.5540 0002065 165.8205 148.3442  1.00273824 44634"
      },
      "geometry": {
        "type": "Point",
        "coordinates": [
          177.14963499127182,
          0.9106001388300742
        ]
      }
    },
    {
      "type": "Feature",
      "properties": {
        "norad_id": 28358,
        "name": "INTELSAT 10-02",
        "group": "intelsat",
        "lat": -0.03250359050660489,
        "lon": -33.831244411822,
        "alt_km": 35782.77849846823,
        "timestamp": "2025-12-06T16:45:42.393992+00:00",
        "meta_object_name": "INTELSAT 10-02",
        "meta_object_id": "2004-022A",
        "meta_epoch": "2025-12-06T06:08:38.706720",
        "meta_mean_motion": 1.00270455,
        "meta_eccentricity": 0.00011658,
        "meta_inclination": 0.0385,
        "meta_ra_of_asc_node": 76.0026,
        "meta_arg_of_pericenter": 208.4633,
        "meta_mean_anomaly": 242.0055,
        "meta_ephemeris_type": 0,
        "meta_classification_type": "U",
        "meta_norad_cat_id": 28358,
        "meta_element_set_no": 999,
        "meta_rev_at_epoch": 7862,
        "meta_bstar": 0,
        "meta_mean_motion_dot": -3e-08,
        "meta_mean_motion_ddot": 0,
        "tle_line1": "1 28358U 04022A   25340.25600355 -.00000003  00000+0  00000+0 0  9996",
        "tle_line2": "2 28358   0.0385  76.0026 0001165 208.4633 242.0055  1.00270455 78629"
      },
      "geometry": {
        "type": "Point",
        "coordinates": [
          -33.831244411822,
          -0.03250359050660489
        ]
      }
    },
    {
      "type": "Feature",
      "properties": {
        "norad_id": 28626,
        "name": "XM-3 (RHYTHM)",
        "group": "intelsat",
        "lat": 0.09532527720730706,
        "lon": 110.1468153372982,
        "alt_km": 36162.510320213514,
        "timestamp": "2025-12-06T16:45:42.394004+00:00",
        "meta_object_name": "XM-3 (RHYTHM)",
        "meta_object_id": "2005-008A",
        "meta_epoch": "2025-12-06T07:30:17.481312",
        "meta_mean_motion": 0.98954601,
        "meta_eccentricity": 0.00011449,
        "meta_inclination": 0.1574,
        "meta_ra_of_asc_node": 81.0273,
        "meta_arg_of_pericenter": 260.031,
        "meta_mean_anomaly": 351.6847,
        "meta_ephemeris_type": 0,
        "meta_classification_type": "U",
        "meta_norad_cat_id": 28626,
        "meta_element_set_no": 999,
        "meta_rev_at_epoch": 4068,
        "meta_bstar": 0,
        "meta_mean_motion_dot": -2.68e-06,
        "meta_mean_motion_ddot": 0,
        "tle_line1": "1 28626U 05008A   25340.31270233 -.00000268  00000+0  00000+0 0  9997",
        "tle_line2": "2 28626   0.1574  81.0273 0001144 260.0310 351.6847  0.98954601 40680"
      },
      "geometry": {
        "type": "Point",
        "coordinates": [
          110.1468153372982,
          0.09532527720730706
        ]
      }
    },
    {
      "type": "Feature",
      "properties": {
        "norad_id": 28659,
        "name": "DIRECTV 8",
        "group": "intelsat",
        "lat": -0.031045674566049255,
        "lon": -151.92749900608393,
        "alt_km": 35777.04517562844,
        "timestamp": "2025-12-06T16:45:42.394016+00:00",
        "meta_object_name": "DIRECTV 8",
        "meta_object_id": "2005-019A",
        "meta_epoch": "2025-12-06T07:42:37.156896",
        "meta_mean_motion": 1.00271085,
        "meta_eccentricity": 0.00032771,
        "meta_inclination": 0.0108,
        "meta_ra_of_asc_node": 318.3353,
        "meta_arg_of_pericenter": 298.1457,
        "meta_mean_anomaly": 175.4882,
        "meta_ephemeris_type": 0,
        "meta_classification_type": "U",
        "meta_norad_cat_id": 28659,
        "meta_element_set_no": 999,
        "meta_rev_at_epoch": 7513,
        "meta_bstar": 0,
        "meta_mean_motion_dot": 9e-08,
        "meta_mean_motion_ddot": 0,
        "tle_line1": "1 28659U 05019A   25340.32126339  .00000009  00000+0  00000+0 0  9995",
        "tle_line2": "2 28659   0.0108 318.3353 0003277 298.1457 175.4882  1.00271085 75137"
      },
      "geometry": {
        "type": "Point",
        "coordinates": [
          -151.92749900608393,
          -0.031045674566049255
        ]
      }
    },
    {
      "type": "Feature",
      "properties": {
        "norad_id": 28702,
        "name": "GALAXY 28 (G-28)",
        "group": "intelsat",
        "lat": 1.0647211205108507,
        "lon": -121.51742283594669,
        "alt_km": 35775.25038769762,
        "timestamp": "2025-12-06T16:45:42.394028+00:00",
        "meta_object_name": "GALAXY 28 (G-28)",
        "meta_object_id": "2005-022A",
        "meta_epoch": "2025-12-06T06:23:46.351680",
        "meta_mean_motion": 1.00271768,
        "meta_eccentricity": 0.00026484,
        "meta_inclination": 2.8021,
        "meta_ra_of_asc_node": 81.3575,
        "meta_arg_of_pericenter": 174.1922,
        "meta_mean_anomaly": 187.0142,
        "meta_ephemeris_type": 0,
        "meta_classification_type": "U",
        "meta_norad_cat_id": 28702,
        "meta_element_set_no": 999,
        "meta_rev_at_epoch": 5004,
        "meta_bstar": 0,
        "meta_mean_motion_dot": -1.81e-06,
        "meta_mean_motion_ddot": 0,
        "tle_line1": "1 28702U 05022A   25340.26650870 -.00000181  00000+0  00000+0 0  9995",
        "tle_line2": "2 28702   2.8021  81.3575 0002648 174.1922 187.0142  1.00271768 50043"
      },
      "geometry": {
        "type": "Point",
        "coordinates": [
          -121.51742283594669,
          1.0647211205108507
        ]
      }
    },
    {
      "type": "Feature",
      "properties": {
        "norad_id": 29236,
        "name": "GALAXY 16 (G-16)",
        "group": "intelsat",
        "lat": -0.005089350814163505,
        "lon": -131.87666108241007,
        "alt_km": 35775.54899674762,
        "timestamp": "2025-12-06T16:45:42.394039+00:00",
        "meta_object_name": "GALAXY 16 (G-16)",
        "meta_object_id": "2006-023A",
        "meta_epoch": "2025-12-06T05:40:35.157792",
        "meta_mean_motion": 1.00271106,
        "meta_eccentricity": 0.00030043,
        "meta_inclination": 0.0136,
        "meta_ra_of_asc_node": 227.9461,
        "meta_arg_of_pericenter": 32.7245,
        "meta_mean_anomaly": 160.7481,
        "meta_ephemeris_type": 0,
        "meta_classification_type": "U",
        "meta_norad_cat_id": 29236,
        "meta_element_set_no": 999,
        "meta_rev_at_epoch": 7103,
        "meta_bstar": 0,
        "meta_mean_motion_dot": -1.19e-06,
        "meta_mean_motion_ddot": 0,
        "tle_line1": "1 29236U 06023A   25340.23651803 -.00000119  00000+0  00000+0 0  9995",
        "tle_line2": "2 29236   0.0136 227.9461 0003004  32.7245 160.7481  1.00271106 71031"
      },
      "geometry": {
        "type": "Point",
        "coordinates": [
          -131.87666108241007,
          -0.005089350814163505
        ]
      }
    },
    {
      "type": "Feature",
      "properties": {
        "norad_id": 29494,
        "name": "DIRECTV 9S",
        "group": "intelsat",
        "lat": 1.1429507593433421,
        "lon": -134.06067835498243,
        "alt_km": 35774.411758872695,
        "timestamp": "2025-12-06T16:45:42.394052+00:00",
        "meta_object_name": "DIRECTV 9S",
        "meta_object_id": "2006-043A",
        "meta_epoch": "2025-12-06T06:12:00.288288",
        "meta_mean_motion": 1.00270522,
        "meta_eccentricity": 0.00032605,
        "meta_inclination": 1.9227,
        "meta_ra_of_asc_node": 83.2777,
        "meta_arg_of_pericenter": 173.3106,
        "meta_mean_anomaly": 170.5049,
        "meta_ephemeris_type": 0,
        "meta_classification_type": "U",
        "meta_norad_cat_id": 29494,
        "meta_element_set_no": 999,
        "meta_rev_at_epoch": 4944,
        "meta_bstar": 0,
        "meta_mean_motion_dot": -1.06e-06,
        "meta_mean_motion_ddot": 0,
        "tle_line1": "1 29494U 06043A   25340.25833667 -.00000106  00000+0  00000+0 0  9991",
        "tle_line2": "2 29494   1.9227  83.2777 0003260 173.3106 170.5049  1.00270522 49443"
      },
      "geometry": {
        "type": "Point",
        "coordinates": [
          -134.06067835498243,
          1.1429507593433421
        ]
      }
    }
  ]
}